[{"OBJECT_NAME":"STARLINK-35548","OBJECT_ID":"2025-243AC","EPOCH":"2026-03-09T18:06:26.286624","MEAN_MOTION":15.30193505,"ECCENTRICITY":0.00011366,"INCLINATION":53.1599,"RA_OF_ASC_NODE":244.9529,"ARG_OF_PERICENTER":65.1193,"MEAN_ANOMALY":294.9926,"EPHEMERIS_TYPE":0,"CLASSIFICATION_TYPE":"U","NORAD_CAT_ID":66203,"ELEMENT_SET_NO":999,"REV_AT_EPOCH":2066,"BSTAR":0.00080914293,"MEAN_MOTION_DOT":0.00023677,"MEAN_MOTION_DDOT":0},{"OBJECT_NAME":"USA 55","OBJECT_ID":"1990-028B","EPOCH":"2026-03-09T23:32:27.967200","MEAN_MOTION":15.43003152,"ECCENTRICITY":0.00579189,"INCLINATION":94.0887,"RA_OF_ASC_NODE":87.6293,"ARG_OF_PERICENTER":152.9949,"MEAN_ANOMALY":207.4341,"EPHEMERIS_TYPE":0,"CLASSIFICATION_TYPE":"U","NORAD_CAT_ID":20547,"ELEMENT_SET_NO":999,"REV_AT_EPOCH":98658,"BSTAR":0.00013659834,"MEAN_MOTION_DOT":6.373e-5,"MEAN_MOTION_DDOT":0}]
